GPS BIIF-11             
1 41019U 15062A   26063.57615744 -.00000079  00000+0  00000+0 0  9990
2 41019  56.8930  34.8413 0111453 231.4983 127.4850  2.00567082 75735
ELEKTRO-L 2             
1 41105U 15074A   26064.29511076 -.00000123  00000+0  00000+0 0  9992
2 41105   6.4333  71.8021 0003413 238.5441 304.4140  1.00270976 37467
GSAT0209 (GALILEO 12)   
1 41174U 15079A   26063.04029836  .00000013  00000+0  00000+0 0  9990
2 41174  55.7590 104.1453 0004747 323.4357  36.6173  1.70474529 62987
GSAT0208 (GALILEO 11)   
1 41175U 15079B   26062.08735472  .00000015  00000+0  00000+0 0  9996
2 41175  55.7569 104.1685 0004163 323.7694  36.2890  1.70474318 63383
GPS BIIF-12             
1 41328U 16007A   26064.16012979  .00000004  00000+0  00000+0 0  9997
2 41328  55.4561  93.5827 0095453 246.0235 113.0379  2.00556727 73758
GSAT0211 (GALILEO 14)   
1 41549U 16030A   26061.62472216  .00000011  00000+0  00000+0 0  9998
2 41549  55.1322 224.6224 0003631  25.7212 334.2388  1.70473766 60858
GSAT0210 (GALILEO 13)   
1 41550U 16030B   26063.64174297  .00000012  00000+0  00000+0 0  9993
2 41550  55.1287 224.5652 0001197 194.9526 164.9809  1.70473947 60886
INSAT-3DR               
1 41752U 16054A   26064.06333017 -.00000086  00000+0  00000+0 0  9999
2 41752   0.0489  96.2317 0013197 185.6547 337.6931  1.00272506 34773
GSAT0207 (GALILEO 15)   
1 41859U 16069A   26059.22748061  .00000008  00000+0  00000+0 0  9997
2 41859  55.4267 104.1007 0005031 309.1503  50.8842  1.70474383 57546
GSAT0212 (GALILEO 16)   
1 41860U 16069B   26062.01395955  .00000014  00000+0  00000+0 0  9997
2 41860  55.4261 104.0186 0003622 335.7588  24.3106  1.70474657 57847
GSAT0213 (GALILEO 17)   
1 41861U 16069C   26058.27531726  .00000004  00000+0  00000+0 0  9998
2 41861  55.4260 104.1303 0005130 291.6331  68.3872  1.70474834 57644
GSAT0214 (GALILEO 18)   
1 41862U 16069D   26059.00795760  .00000007  00000+0  00000+0 0  9994
2 41862  55.4250 104.1026 0004132 296.1582  63.8775  1.70474701 57785
GOES 16                 
1 41866U 16071A   26064.27725734 -.00000099  00000+0  00000+0 0  9992
2 41866   0.1401  89.6705 0002464 221.2947 207.1543  1.00271815 34061
GSAT-17                 
1 42815U 17040B   26064.00277631 -.00000267  00000+0  00000+0 0  9990
2 42815   0.0397 299.9445 0004980 347.8839 329.4053  1.00269919 31744
GSAT0215 (GALILEO 19)   
1 43055U 17079A   26062.43085966  .00000010  00000+0  00000+0 0  9997
2 43055  55.1080 224.4135 0000631  13.1955 346.7446  1.70474475 51181
GSAT0216 (GALILEO 20)   
1 43056U 17079B   26060.96235113  .00000013  00000+0  00000+0 0  9998
2 43056  55.1088 224.4540 0001688 322.1798  37.7539  1.70474524 51175
GSAT0217 (GALILEO 21)   
1 43057U 17079C   26062.35625513  .00000009  00000+0  00000+0 0  9996
2 43057  55.1084 224.4135 0002106 356.8681   3.0693  1.70474491 51184
